CCSDS_OMM_VERS = 2.0
CREATION_DATE  = 
ORIGINATOR     = 

OBJECT_NAME    = ISS (ZARYA)
OBJECT_ID      = 1998-067A
CENTER_NAME    = EARTH
REF_FRAME      = TEME
TIME_SYSTEM    = UTC
MEAN_ELEMENT_THEORY = SGP/SGP4

EPOCH          = 2026-03-03T21:34:02.527104
MEAN_MOTION    = 15.48428601
ECCENTRICITY   = .00082081
INCLINATION    = 51.6318
RA_OF_ASC_NODE = 100.9868
ARG_OF_PERICENTER = 154.1881
MEAN_ANOMALY   = 205.9518

EPHEMERIS_TYPE = 0
CLASSIFICATION_TYPE = U
NORAD_CAT_ID   = 25544
ELEMENT_SET_NO = 999
REV_AT_EPOCH   = 55543
BSTAR          = .19499392E-3
MEAN_MOTION_DOT = .10104E-3
MEAN_MOTION_DDOT = 0

CCSDS_OMM_VERS = 2.0
CREATION_DATE  = 
ORIGINATOR     = 

OBJECT_NAME    = POISK
OBJECT_ID      = 2009-060A
CENTER_NAME    = EARTH
REF_FRAME      = TEME
TIME_SYSTEM    = UTC
MEAN_ELEMENT_THEORY = SGP/SGP4

EPOCH          = 2026-03-03T21:34:02.527104
MEAN_MOTION    = 15.48428601
ECCENTRICITY   = .00082081
INCLINATION    = 51.6318
RA_OF_ASC_NODE = 100.9868
ARG_OF_PERICENTER = 154.1881
MEAN_ANOMALY   = 205.9518

EPHEMERIS_TYPE = 0
CLASSIFICATION_TYPE = U
NORAD_CAT_ID   = 36086
ELEMENT_SET_NO = 999
REV_AT_EPOCH   = 55444
BSTAR          = .19499392E-3
MEAN_MOTION_DOT = .10104E-3
MEAN_MOTION_DDOT = 0

CCSDS_OMM_VERS = 2.0
CREATION_DATE  = 
ORIGINATOR     = 

OBJECT_NAME    = CSS (TIANHE)
OBJECT_ID      = 2021-035A
CENTER_NAME    = EARTH
REF_FRAME      = TEME
TIME_SYSTEM    = UTC
MEAN_ELEMENT_THEORY = SGP/SGP4

EPOCH          = 2026-03-03T22:56:14.581248
MEAN_MOTION    = 15.60371210
ECCENTRICITY   = .00068122
INCLINATION    = 41.4657
RA_OF_ASC_NODE = 243.0428
ARG_OF_PERICENTER = 239.4436
MEAN_ANOMALY   = 120.5731

EPHEMERIS_TYPE = 0
CLASSIFICATION_TYPE = U
NORAD_CAT_ID   = 48274
ELEMENT_SET_NO = 999
REV_AT_EPOCH   = 27671
BSTAR          = .41302661E-3
MEAN_MOTION_DOT = .34693E-3
MEAN_MOTION_DDOT = 0

CCSDS_OMM_VERS = 2.0
CREATION_DATE  = 
ORIGINATOR     = 

OBJECT_NAME    = ISS (NAUKA)
OBJECT_ID      = 2021-066A
CENTER_NAME    = EARTH
REF_FRAME      = TEME
TIME_SYSTEM    = UTC
MEAN_ELEMENT_THEORY = SGP/SGP4

EPOCH          = 2026-03-03T21:34:02.527104
MEAN_MOTION    = 15.48428601
ECCENTRICITY   = .00082081
INCLINATION    = 51.6318
RA_OF_ASC_NODE = 100.9868
ARG_OF_PERICENTER = 154.1881
MEAN_ANOMALY   = 205.9518

EPHEMERIS_TYPE = 0
CLASSIFICATION_TYPE = U
NORAD_CAT_ID   = 49044
ELEMENT_SET_NO = 999
REV_AT_EPOCH   = 55445
BSTAR          = .19499392E-3
MEAN_MOTION_DOT = .10104E-3
MEAN_MOTION_DDOT = 0

CCSDS_OMM_VERS = 2.0
CREATION_DATE  = 
ORIGINATOR     = 

OBJECT_NAME    = FREGAT DEB
OBJECT_ID      = 2011-037PF
CENTER_NAME    = EARTH
REF_FRAME      = TEME
TIME_SYSTEM    = UTC
MEAN_ELEMENT_THEORY = SGP/SGP4

EPOCH          = 2026-03-03T01:45:48.369600
MEAN_MOTION    = 12.39774562
ECCENTRICITY   = .09551804
INCLINATION    = 51.6509
RA_OF_ASC_NODE = 320.5956
ARG_OF_PERICENTER = 44.2014
MEAN_ANOMALY   = 323.1255

EPHEMERIS_TYPE = 0
CLASSIFICATION_TYPE = U
NORAD_CAT_ID   = 49271
ELEMENT_SET_NO = 999
REV_AT_EPOCH   = 21187
BSTAR          = .49338911E-1
MEAN_MOTION_DOT = .33502E-3
MEAN_MOTION_DDOT = 0

CCSDS_OMM_VERS = 2.0
CREATION_DATE  = 
ORIGINATOR     = 

OBJECT_NAME    = CSS (WENTIAN)
OBJECT_ID      = 2022-085A
CENTER_NAME    = EARTH
REF_FRAME      = TEME
TIME_SYSTEM    = UTC
MEAN_ELEMENT_THEORY = SGP/SGP4

EPOCH          = 2026-03-03T22:56:14.581248
MEAN_MOTION    = 15.60371210
ECCENTRICITY   = .00068122
INCLINATION    = 41.4657
RA_OF_ASC_NODE = 243.0428
ARG_OF_PERICENTER = 239.4436
MEAN_ANOMALY   = 120.5731

EPHEMERIS_TYPE = 0
CLASSIFICATION_TYPE = U
NORAD_CAT_ID   = 53239
ELEMENT_SET_NO = 999
REV_AT_EPOCH   = 27561
BSTAR          = .41302661E-3
MEAN_MOTION_DOT = .34693E-3
MEAN_MOTION_DDOT = 0

CCSDS_OMM_VERS = 2.0
CREATION_DATE  = 
ORIGINATOR     = 

OBJECT_NAME    = CSS (MENGTIAN)
OBJECT_ID      = 2022-143A
CENTER_NAME    = EARTH
REF_FRAME      = TEME
TIME_SYSTEM    = UTC
MEAN_ELEMENT_THEORY = SGP/SGP4

EPOCH          = 2026-03-03T22:56:14.581248
MEAN_MOTION    = 15.60371210
ECCENTRICITY   = .00068122
INCLINATION    = 41.4657
RA_OF_ASC_NODE = 243.0428
ARG_OF_PERICENTER = 239.4436
MEAN_ANOMALY   = 120.5731

EPHEMERIS_TYPE = 0
CLASSIFICATION_TYPE = U
NORAD_CAT_ID   = 54216
ELEMENT_SET_NO = 999
REV_AT_EPOCH   = 27558
BSTAR          = .41302661E-3
MEAN_MOTION_DOT = .34693E-3
MEAN_MOTION_DDOT = 0

CCSDS_OMM_VERS = 2.0
CREATION_DATE  = 
ORIGINATOR     = 

OBJECT_NAME    = PROGRESS-MS 31
OBJECT_ID      = 2025-146A
CENTER_NAME    = EARTH
REF_FRAME      = TEME
TIME_SYSTEM    = UTC
MEAN_ELEMENT_THEORY = SGP/SGP4

EPOCH          = 2026-03-03T21:34:02.527104
MEAN_MOTION    = 15.48428601
ECCENTRICITY   = .00082081
INCLINATION    = 51.6318
RA_OF_ASC_NODE = 100.9868
ARG_OF_PERICENTER = 154.1881
MEAN_ANOMALY   = 205.9518

EPHEMERIS_TYPE = 0
CLASSIFICATION_TYPE = U
NORAD_CAT_ID   = 64751
ELEMENT_SET_NO = 999
REV_AT_EPOCH   = 55446
BSTAR          = .19499392E-3
MEAN_MOTION_DOT = .10104E-3
MEAN_MOTION_DDOT = 0

CCSDS_OMM_VERS = 2.0
CREATION_DATE  = 
ORIGINATOR     = 

OBJECT_NAME    = TIANZHOU-9
OBJECT_ID      = 2025-149A
CENTER_NAME    = EARTH
REF_FRAME      = TEME
TIME_SYSTEM    = UTC
MEAN_ELEMENT_THEORY = SGP/SGP4

EPOCH          = 2026-03-03T22:56:14.581248
MEAN_MOTION    = 15.60371210
ECCENTRICITY   = .00068122
INCLINATION    = 41.4657
RA_OF_ASC_NODE = 243.0428
ARG_OF_PERICENTER = 239.4436
MEAN_ANOMALY   = 120.5731

EPHEMERIS_TYPE = 0
CLASSIFICATION_TYPE = U
NORAD_CAT_ID   = 64786
ELEMENT_SET_NO = 999
REV_AT_EPOCH   = 27559
BSTAR          = .41302661E-3
MEAN_MOTION_DOT = .34693E-3
MEAN_MOTION_DDOT = 0

CCSDS_OMM_VERS = 2.0
CREATION_DATE  = 
ORIGINATOR     = 

OBJECT_NAME    = PROGRESS-MS 32
OBJECT_ID      = 2025-204A
CENTER_NAME    = EARTH
REF_FRAME      = TEME
TIME_SYSTEM    = UTC
MEAN_ELEMENT_THEORY = SGP/SGP4

EPOCH          = 2026-03-03T21:34:02.527104
MEAN_MOTION    = 15.48428601
ECCENTRICITY   = .00082081
INCLINATION    = 51.6318
RA_OF_ASC_NODE = 100.9868
ARG_OF_PERICENTER = 154.1881
MEAN_ANOMALY   = 205.9518

EPHEMERIS_TYPE = 0
CLASSIFICATION_TYPE = U
NORAD_CAT_ID   = 65586
ELEMENT_SET_NO = 999
REV_AT_EPOCH   = 55450
BSTAR          = .19499392E-3
MEAN_MOTION_DOT = .10104E-3
MEAN_MOTION_DDOT = 0

CCSDS_OMM_VERS = 2.0
CREATION_DATE  = 
ORIGINATOR     = 

OBJECT_NAME    = CYGNUS NG-23
OBJECT_ID      = 2025-208A
CENTER_NAME    = EARTH
REF_FRAME      = TEME
TIME_SYSTEM    = UTC
MEAN_ELEMENT_THEORY = SGP/SGP4

EPOCH          = 2026-03-03T21:34:02.527104
MEAN_MOTION    = 15.48428601
ECCENTRICITY   = .00082081
INCLINATION    = 51.6318
RA_OF_ASC_NODE = 100.9868
ARG_OF_PERICENTER = 154.1881
MEAN_ANOMALY   = 205.9518

EPHEMERIS_TYPE = 0
CLASSIFICATION_TYPE = U
NORAD_CAT_ID   = 65616
ELEMENT_SET_NO = 999
REV_AT_EPOCH   = 55451
BSTAR          = .19499392E-3
MEAN_MOTION_DOT = .10104E-3
MEAN_MOTION_DDOT = 0

CCSDS_OMM_VERS = 2.0
CREATION_DATE  = 
ORIGINATOR     = 

OBJECT_NAME    = ISS OBJECT XK
OBJECT_ID      = 1998-067XK
CENTER_NAME    = EARTH
REF_FRAME      = TEME
TIME_SYSTEM    = UTC
MEAN_ELEMENT_THEORY = SGP/SGP4

EPOCH          = 2026-03-03T10:24:19.496736
MEAN_MOTION    = 16.05216946
ECCENTRICITY   = .00059121
INCLINATION    = 51.6160
RA_OF_ASC_NODE = 79.7208
ARG_OF_PERICENTER = 55.9691
MEAN_ANOMALY   = 304.1882

EPHEMERIS_TYPE = 0
CLASSIFICATION_TYPE = U
NORAD_CAT_ID   = 65731
ELEMENT_SET_NO = 999
REV_AT_EPOCH   = 2589
BSTAR          = .13197331E-2
MEAN_MOTION_DOT = .94034E-2
MEAN_MOTION_DDOT = .47493302E-3

