ISS (ZARYA)             
1 25544U 98067A   26062.89864036  .00010104  00000+0  19499-3 0  9990
2 25544  51.6318 100.9868 0008208 154.1881 205.9518 15.48428601555435
POISK                   
1 36086U 09060A   26062.89864036  .00010104  00000+0  19499-3 0  9998
2 36086  51.6318 100.9868 0008208 154.1881 205.9518 15.48428601554448
CSS (TIANHE)            
1 48274U 21035A   26062.95572432  .00034693  00000+0  41303-3 0  9997
2 48274  41.4657 243.0428 0006812 239.4436 120.5731 15.60371210276713
ISS (NAUKA)             
1 49044U 21066A   26062.89864036  .00010104  00000+0  19499-3 0  9996
2 49044  51.6318 100.9868 0008208 154.1881 205.9518 15.48428601554457
FREGAT DEB              
1 49271U 11037PF  26062.07347650  .00033502  00000+0  49339-1 0  9994
2 49271  51.6509 320.5956 0955180  44.2014 323.1255 12.39774562211870
CSS (WENTIAN)           
1 53239U 22085A   26062.95572432  .00034693  00000+0  41303-3 0  9990
2 53239  41.4657 243.0428 0006812 239.4436 120.5731 15.60371210275618
CSS (MENGTIAN)          
1 54216U 22143A   26062.95572432  .00034693  00000+0  41303-3 0  9991
2 54216  41.4657 243.0428 0006812 239.4436 120.5731 15.60371210275580
PROGRESS-MS 31          
1 64751U 25146A   26062.89864036  .00010104  00000+0  19499-3 0  9991
2 64751  51.6318 100.9868 0008208 154.1881 205.9518 15.48428601554460
TIANZHOU-9              
1 64786U 25149A   26062.95572432  .00034693  00000+0  41303-3 0  9993
2 64786  41.4657 243.0428 0006812 239.4436 120.5731 15.60371210275594
PROGRESS-MS 32          
1 65586U 25204A   26062.89864036  .00010104  00000+0  19499-3 0  9993
2 65586  51.6318 100.9868 0008208 154.1881 205.9518 15.48428601554502
CYGNUS NG-23            
1 65616U 25208A   26062.89864036  .00010104  00000+0  19499-3 0  9991
2 65616  51.6318 100.9868 0008208 154.1881 205.9518 15.48428601554517
ISS OBJECT XK           
1 65731U 98067XK  26062.43355899  .00940340  47493-3  13197-2 0  9997
2 65731  51.6160  79.7208 0005912  55.9691 304.1882 16.05216946 25898
